QIANFAN-73              
1 63159U 25046A   25289.94579459  .00000158  00000+0  22700-3 0  9996
2 63159  88.9789 325.9034 0012920 290.2785  69.6977 13.50970142 39747
QIANFAN-74              
1 63160U 25046B   25289.92933038  .00000146  00000+0  20685-3 0  9990
2 63160  88.9791 325.7935 0002174  99.0184 261.1213 13.50972033 39808
QIANFAN-75              
1 63161U 25046C   25289.91691279  .00000193  00000+0  28071-3 0  9997
2 63161  88.9792 326.0275 0014050 293.6278  66.3398 13.50979820 39678
QIANFAN-76              
1 63162U 25046D   25289.98694272  .00000072  00000+0  92408-4 0  9993
2 63162  88.9793 326.0013 0011608 294.6109  65.3833 13.50972062 39696
QIANFAN-77              
1 63163U 25046E   25289.92012022  .00000356  00000+0  24970-3 0  9998
2 63163  88.9788 324.4817 0012599 255.0871 104.8911 13.96072015 40521
QIANFAN-78              
1 63164U 25046F   25289.95405036  .00000160  00000+0  22944-3 0  9995
2 63164  88.9791 325.8692 0013026 297.0305  62.9516 13.50972512 39766
QIANFAN-79              
1 63165U 25046G   25289.90866661  .00000151  00000+0  21558-3 0  9996
2 63165  88.9794 325.9792 0012697 295.2315  64.7519 13.50971602 39702
QIANFAN-80              
1 63166U 25046H   25289.92523897  .00000186  00000+0  26964-3 0  9994
2 63166  88.9792 325.6858 0011727 300.6132  59.3863 13.50972451 39864
